[{"OBJECT_NAME":"YAOGAN-14","OBJECT_ID":"2012-021A","EPOCH":"2026-03-09T23:13:16.463424","MEAN_MOTION":15.26486019,"ECCENTRICITY":0.00056417,"INCLINATION":97.2863,"RA_OF_ASC_NODE":208.4378,"ARG_OF_PERICENTER":161.6562,"MEAN_ANOMALY":198.4882,"EPHEMERIS_TYPE":0,"CLASSIFICATION_TYPE":"U","NORAD_CAT_ID":38257,"ELEMENT_SET_NO":999,"REV_AT_EPOCH":77067,"BSTAR":0.00037795498,"MEAN_MOTION_DOT":9.798e-5,"MEAN_MOTION_DDOT":0},{"OBJECT_NAME":"STARLINK-35879","OBJECT_ID":"2025-288B","EPOCH":"2026-03-09T06:40:59.838240","MEAN_MOTION":15.27572678,"ECCENTRICITY":0.00017249,"INCLINATION":43.0038,"RA_OF_ASC_NODE":25.854,"ARG_OF_PERICENTER":255.1565,"MEAN_ANOMALY":104.9096,"EPHEMERIS_TYPE":0,"CLASSIFICATION_TYPE":"U","NORAD_CAT_ID":66960,"ELEMENT_SET_NO":999,"REV_AT_EPOCH":1522,"BSTAR":0.0012164535,"MEAN_MOTION_DOT":0.00033356,"MEAN_MOTION_DDOT":0}]
